{"type": "FeatureCollection", "features": [ {"type": "Feature", "properties": {"norad_id": 31678, "name": "FENGYUN 1C DEB", "group": "fengyun-1c-debris", "lat": -74.3521973572758, "lon": -111.09608754581133, "alt_km": 786.8726136703772, "timestamp": "2025-12-18T23:35:49.344232+00:00", "meta": {"OBJECT_NAME": "FENGYUN 1C DEB", "OBJECT_ID": "1999-025CCL", "EPOCH": "2025-12-17T13:21:34.128864", "MEAN_MOTION": 14.53232877, "ECCENTRICITY": 0.02587183, "INCLINATION": 98.7998, "RA_OF_ASC_NODE": 100.9803, "ARG_OF_PERICENTER": 13.2727, "MEAN_ANOMALY": 347.5106, "EPHEMERIS_TYPE": 0, "CLASSIFICATION_TYPE": "U", "NORAD_CAT_ID": 31678, "ELEMENT_SET_NO": 999, "REV_AT_EPOCH": 96909, "BSTAR": 0.00061595616, "MEAN_MOTION_DOT": 3.92e-05, "MEAN_MOTION_DDOT": 0}, "tle": {"line1": "1 31678U 99025CCL 25351.55664501  .00003920  00000+0  61596-3 0  9991", "line2": "2 31678  98.7998 100.9803 0258718  13.2727 347.5106 14.53232877969092"}}, "geometry": {"type": "Point", "coordinates": [-111.09608754581133, -74.3521973572758]}}, {"type": "Feature", "properties": {"norad_id": 31680, "name": "FENGYUN 1C DEB", "group": "fengyun-1c-debris", "lat": -0.7516607450729335, "lon": 102.56942396048203, "alt_km": 494.9038567417565, "timestamp": "2025-12-18T23:35:49.344243+00:00", "meta": {"OBJECT_NAME": "FENGYUN 1C DEB", "OBJECT_ID": "1999-025CCN", "EPOCH": "2025-12-16T13:18:49.410720", "MEAN_MOTION": 15.24349933, "ECCENTRICITY": 0.00750456, "INCLINATION": 99.8356, "RA_OF_ASC_NODE": 99.2579, "ARG_OF_PERICENTER": 277.5112, "MEAN_ANOMALY": 81.7597, "EPHEMERIS_TYPE": 0, "CLASSIFICATION_TYPE": "U", "NORAD_CAT_ID": 31680, "ELEMENT_SET_NO": 999, "REV_AT_EPOCH": 230, "BSTAR": 0.0010112684, "MEAN_MOTION_DOT": 0.00026773, "MEAN_MOTION_DDOT": 0}, "tle": {"line1": "1 31680U 99025CCN 25350.55473855  .00026773  00000+0  10113-2 0  9992", "line2": "2 31680  99.8356  99.2579 0075045 277.5112  81.7597 15.24349933  2302"}}, "geometry": {"type": "Point", "coordinates": [102.56942396048203, -0.7516607450729335]}}, {"type": "Feature", "properties": {"norad_id": 31685, "name": "FENGYUN 1C DEB", "group": "fengyun-1c-debris", "lat": 63.330451228734354, "lon": -145.17066091079275, "alt_km": 854.7583375670747, "timestamp": "2025-12-18T23:35:49.344253+00:00", "meta": {"OBJECT_NAME": "FENGYUN 1C DEB", "OBJECT_ID": "1999-025CCT", "EPOCH": "2025-12-18T07:43:10.330176", "MEAN_MOTION": 14.09660356, "ECCENTRICITY": 0.00161583, "INCLINATION": 98.7304, "RA_OF_ASC_NODE": 16.3739, "ARG_OF_PERICENTER": 209.3493, "MEAN_ANOMALY": 150.6771, "EPHEMERIS_TYPE": 0, "CLASSIFICATION_TYPE": "U", "NORAD_CAT_ID": 31685, "ELEMENT_SET_NO": 999, "REV_AT_EPOCH": 95168, "BSTAR": 4.0808912e-05, "MEAN_MOTION_DOT": 2.9e-07, "MEAN_MOTION_DDOT": 0}, "tle": {"line1": "1 31685U 99025CCT 25352.32164734  .00000029  00000+0  40809-4 0  9990", "line2": "2 31685  98.7304  16.3739 0016158 209.3493 150.6771 14.09660356951682"}}, "geometry": {"type": "Point", "coordinates": [-145.17066091079275, 63.330451228734354]}}, {"type": "Feature", "properties": {"norad_id": 31686, "name": "FENGYUN 1C DEB", "group": "fengyun-1c-debris", "lat": -27.648561968481953, "lon": -119.71130893760291, "alt_km": 805.7855473328636, "timestamp": "2025-12-18T23:35:49.344264+00:00", "meta": {"OBJECT_NAME": "FENGYUN 1C DEB", "OBJECT_ID": "1999-025CCU", "EPOCH": "2025-12-18T11:15:40.453344", "MEAN_MOTION": 14.72196055, "ECCENTRICITY": 0.02831993, "INCLINATION": 98.1524, "RA_OF_ASC_NODE": 64.0794, "ARG_OF_PERICENTER": 71.278, "MEAN_ANOMALY": 291.8935, "EPHEMERIS_TYPE": 0, "CLASSIFICATION_TYPE": "U", "NORAD_CAT_ID": 31686, "ELEMENT_SET_NO": 999, "REV_AT_EPOCH": 97903, "BSTAR": 0.00061754901, "MEAN_MOTION_DOT": 7.323e-05, "MEAN_MOTION_DDOT": 0}, "tle": {"line1": "1 31686U 99025CCU 25352.46921821  .00007323  00000+0  61755-3 0  9990", "line2": "2 31686  98.1524  64.0794 0283199  71.2780 291.8935 14.72196055979037"}}, "geometry": {"type": "Point", "coordinates": [-119.71130893760291, -27.648561968481953]}}, {"type": "Feature", "properties": {"norad_id": 31688, "name": "FENGYUN 1C DEB", "group": "fengyun-1c-debris", "lat": 73.2354617374449, "lon": 15.359470628876604, "alt_km": 841.9144567831818, "timestamp": "2025-12-18T23:35:49.344274+00:00", "meta": {"OBJECT_NAME": "FENGYUN 1C DEB", "OBJECT_ID": "1999-025CCW", "EPOCH": "2025-12-18T02:41:18.686976", "MEAN_MOTION": 14.02315634, "ECCENTRICITY": 0.00756682, "INCLINATION": 98.9636, "RA_OF_ASC_NODE": 46.0994, "ARG_OF_PERICENTER": 126.5004, "MEAN_ANOMALY": 234.3164, "EPHEMERIS_TYPE": 0, "CLASSIFICATION_TYPE": "U", "NORAD_CAT_ID": 31688, "ELEMENT_SET_NO": 999, "REV_AT_EPOCH": 95353, "BSTAR": -2.3016306e-05, "MEAN_MOTION_DOT": -7.9e-07, "MEAN_MOTION_DDOT": 0}, "tle": {"line1": "1 31688U 99025CCW 25352.11202184 -.00000079  00000+0 -23016-4 0  9990", "line2": "2 31688  98.9636  46.0994 0075668 126.5004 234.3164 14.02315634953538"}}, "geometry": {"type": "Point", "coordinates": [15.359470628876604, 73.2354617374449]}}, {"type": "Feature", "properties": {"norad_id": 31691, "name": "FENGYUN 1C DEB", "group": "fengyun-1c-debris", "lat": 75.21667678024289, "lon": 43.16346183635759, "alt_km": 832.7275885004128, "timestamp": "2025-12-18T23:35:49.344285+00:00", "meta": {"OBJECT_NAME": "FENGYUN 1C DEB", "OBJECT_ID": "1999-025CCZ", "EPOCH": "2025-12-17T11:52:08.430528", "MEAN_MOTION": 14.26190936, "ECCENTRICITY": 0.00616801, "INCLINATION": 98.8819, "RA_OF_ASC_NODE": 77.9922, "ARG_OF_PERICENTER": 225.8341, "MEAN_ANOMALY": 133.776, "EPHEMERIS_TYPE": 0, "CLASSIFICATION_TYPE": "U", "NORAD_CAT_ID": 31691, "ELEMENT_SET_NO": 999, "REV_AT_EPOCH": 64179, "BSTAR": 0.001756178, "MEAN_MOTION_DOT": 4.247e-05, "MEAN_MOTION_DDOT": 0}, "tle": {"line1": "1 31691U 99025CCZ 25351.49454202  .00004247  00000+0  17562-2 0  9990", "line2": "2 31691  98.8819  77.9922 0061680 225.8341 133.7760 14.26190936641792"}}, "geometry": {"type": "Point", "coordinates": [43.16346183635759, 75.21667678024289]}}, {"type": "Feature", "properties": {"norad_id": 31692, "name": "FENGYUN 1C DEB", "group": "fengyun-1c-debris", "lat": -8.886795540054715, "lon": 168.23104285766448, "alt_km": 870.4234341685997, "timestamp": "2025-12-18T23:35:49.344296+00:00", "meta": {"OBJECT_NAME": "FENGYUN 1C DEB", "OBJECT_ID": "1999-025CDA", "EPOCH": "2025-12-13T19:07:47.653248", "MEAN_MOTION": 14.1836456, "ECCENTRICITY": 0.00879373, "INCLINATION": 99.1765, "RA_OF_ASC_NODE": 344.318, "ARG_OF_PERICENTER": 78.7556, "MEAN_ANOMALY": 282.3486, "EPHEMERIS_TYPE": 0, "CLASSIFICATION_TYPE": "U", "NORAD_CAT_ID": 31692, "ELEMENT_SET_NO": 999, "REV_AT_EPOCH": 58224, "BSTAR": 0.0032581742, "MEAN_MOTION_DOT": 6.94e-05, "MEAN_MOTION_DDOT": 0}, "tle": {"line1": "1 31692U 99025CDA 25347.79707932  .00006940  00000+0  32582-2 0  9991", "line2": "2 31692  99.1765 344.3180 0087937  78.7556 282.3486 14.18364560582247"}}, "geometry": {"type": "Point", "coordinates": [168.23104285766448, -8.886795540054715]}}, {"type": "Feature", "properties": {"norad_id": 31695, "name": "FENGYUN 1C DEB", "group": "fengyun-1c-debris", "lat": 59.30544474870615, "lon": -88.40630560053074, "alt_km": 638.9661129547385, "timestamp": "2025-12-18T23:35:49.344307+00:00", "meta": {"OBJECT_NAME": "FENGYUN 1C DEB", "OBJECT_ID": "1999-025CDD", "EPOCH": "2025-12-18T01:51:35.837568", "MEAN_MOTION": 14.73795278, "ECCENTRICITY": 0.01749049, "INCLINATION": 98.2651, "RA_OF_ASC_NODE": 76.4965, "ARG_OF_PERICENTER": 211.5312, "MEAN_ANOMALY": 147.5322, "EPHEMERIS_TYPE": 0, "CLASSIFICATION_TYPE": "U", "NORAD_CAT_ID": 31695, "ELEMENT_SET_NO": 999, "REV_AT_EPOCH": 66050, "BSTAR": 0.0012541591, "MEAN_MOTION_DOT": 0.00010438, "MEAN_MOTION_DDOT": 0}, "tle": {"line1": "1 31695U 99025CDD 25352.07749812  .00010438  00000+0  12542-2 0  9995", "line2": "2 31695  98.2651  76.4965 0174904 211.5312 147.5322 14.73795278660508"}}, "geometry": {"type": "Point", "coordinates": [-88.40630560053074, 59.30544474870615]}}, {"type": "Feature", "properties": {"norad_id": 31714, "name": "FENGYUN 1C DEB", "group": "fengyun-1c-debris", "lat": 1.972697590572269, "lon": 74.34285744179195, "alt_km": 608.0098741135935, "timestamp": "2025-12-18T23:35:49.344317+00:00", "meta": {"OBJECT_NAME": "FENGYUN 1C DEB", "OBJECT_ID": "1999-025CDM", "EPOCH": "2025-12-17T05:32:06.258336", "MEAN_MOTION": 14.88513317, "ECCENTRICITY": 0.00174212, "INCLINATION": 99.0319, "RA_OF_ASC_NODE": 252.0332, "ARG_OF_PERICENTER": 288.7858, "MEAN_ANOMALY": 222.8977, "EPHEMERIS_TYPE": 0, "CLASSIFICATION_TYPE": "U", "NORAD_CAT_ID": 31714, "ELEMENT_SET_NO": 999, "REV_AT_EPOCH": 96116, "BSTAR": 0.0048606026, "MEAN_MOTION_DOT": 0.0004552, "MEAN_MOTION_DDOT": 0}, "tle": {"line1": "1 31714U 99025CDM 25351.23062799  .00045520  00000+0  48606-2 0  9996", "line2": "2 31714  99.0319 252.0332 0017421 288.7858 222.8977 14.88513317961168"}}, "geometry": {"type": "Point", "coordinates": [74.34285744179195, 1.972697590572269]}}, {"type": "Feature", "properties": {"norad_id": 31715, "name": "FENGYUN 1C DEB", "group": "fengyun-1c-debris", "lat": 33.859586522637386, "lon": 8.775255854934143, "alt_km": 620.5930155146434, "timestamp": "2025-12-18T23:35:49.344328+00:00", "meta": {"OBJECT_NAME": "FENGYUN 1C DEB", "OBJECT_ID": "1999-025CDN", "EPOCH": "2025-12-18T06:24:34.673472", "MEAN_MOTION": 14.5220919, "ECCENTRICITY": 0.01870722, "INCLINATION": 99.2921, "RA_OF_ASC_NODE": 181.6763, "ARG_OF_PERICENTER": 103.0013, "MEAN_ANOMALY": 259.2139, "EPHEMERIS_TYPE": 0, "CLASSIFICATION_TYPE": "U", "NORAD_CAT_ID": 31715, "ELEMENT_SET_NO": 999, "REV_AT_EPOCH": 61797, "BSTAR": 0.00065902481, "MEAN_MOTION_DOT": 3.301e-05, "MEAN_MOTION_DDOT": 0}, "tle": {"line1": "1 31715U 99025CDN 25352.26706798  .00003301  00000+0  65902-3 0  9995", "line2": "2 31715  99.2921 181.6763 0187072 103.0013 259.2139 14.52209190617970"}}, "geometry": {"type": "Point", "coordinates": [8.775255854934143, 33.859586522637386]}}]}